{
    "links": {
        "self": "http://www.neowsapp.com/rest/v1/neo/3760438?api_key=iIulBulltgU6a56xZRHN4H3l9WmuAYTsLGpBGhQ2"
    },
    "id": "3760438",
    "neo_reference_id": "3760438",
    "name": "(2016 TE10)",
    "designation": "2016 TE10",
    "nasa_jpl_url": "http://ssd.jpl.nasa.gov/sbdb.cgi?sstr=3760438",
    "absolute_magnitude_h": 21.3,
    "estimated_diameter": {
        "kilometers": {
            "estimated_diameter_min": 0.1460679643,
            "estimated_diameter_max": 0.3266178974
        },
        "meters": {
            "estimated_diameter_min": 146.0679642714,
            "estimated_diameter_max": 326.6178974458
        },
        "miles": {
            "estimated_diameter_min": 0.090762397,
            "estimated_diameter_max": 0.2029508896
        },
        "feet": {
            "estimated_diameter_min": 479.2256199,
            "estimated_diameter_max": 1071.581062656
        }
    },
    "is_potentially_hazardous_asteroid": false,
    "close_approach_data": [
        {
            "close_approach_date": "2016-08-16",
            "close_approach_date_full": "2016-Aug-16 20:13",
            "epoch_date_close_approach": 1471378380000,
            "relative_velocity": {
                "kilometers_per_second": "5.1613630601",
                "kilometers_per_hour": "18580.9070164739",
                "miles_per_hour": "11545.4530292084"
            },
            "miss_distance": {
                "astronomical": "0.3619828945",
                "lunar": "140.8113459605",
                "kilometers": "54151869.993634715",
                "miles": "33648411.716460467"
            },
            "orbiting_body": "Earth"
        },
        {
            "close_approach_date": "2050-08-13",
            "close_approach_date_full": "2050-Aug-13 01:10",
            "epoch_date_close_approach": 2543965800000,
            "relative_velocity": {
                "kilometers_per_second": "4.6274941207",
                "kilometers_per_hour": "16658.9788346641",
                "miles_per_hour": "10351.2415986834"
            },
            "miss_distance": {
                "astronomical": "0.2548729256",
                "lunar": "99.1455680584",
                "kilometers": "38128446.790428472",
                "miles": "23691918.2267260336"
            },
            "orbiting_body": "Earth"
        }
    ],
    "orbital_data": {
        "orbit_id": "7",
        "orbit_determination_date": "2017-04-06 08:23:23",
        "first_observation_date": "2016-10-02",
        "last_observation_date": "2016-11-02",
        "data_arc_in_days": 31,
        "observations_used": 26,
        "orbit_uncertainty": "6",
        "minimum_orbit_intersection": ".279552",
        "jupiter_tisserand_invariant": "3.038",
        "epoch_osculation": "2459000.5",
        "eccentricity": ".5574757710537658",
        "semi_major_axis": "2.871478617255818",
        "inclination": "6.401343485581656",
        "ascending_node_longitude": "265.0841852409406",
        "orbital_period": "1777.283900230295",
        "perihelion_distance": "1.27069886103673",
        "perihelion_argument": "59.86175288723207",
        "aphelion_distance": "4.472258373474906",
        "perihelion_time": "2459383.733249803214",
        "mean_anomaly": "282.3737018541156",
        "mean_motion": ".2025562713719245",
        "equinox": "J2000",
        "orbit_class": {
            "orbit_class_type": "AMO",
            "orbit_class_description": "Near-Earth asteroid orbits similar to that of 1221 Amor",
            "orbit_class_range": "1.017 AU < q (perihelion) < 1.3 AU"
        }
    },
    "is_sentry_object": false
}